start=new Date('2023-04-13T00:00:00.000Z').valueOf();
sats=[{"ELEMENT_SET_NO":"999","MEAN_ELEMENT_THEORY":"SGP4","OBJECT_TYPE":"PAYLOAD","BSTAR":"0.00002833100000","TLE_LINE2":"2 53531  53.2161 162.5813 0001320  98.1044 262.0098 15.08838847 35800","MEAN_ANOMALY":"262.0098","INCLINATION":"53.2161","MEAN_MOTION_DOT":"0.00000163","APOAPSIS":"540.662","TIME_SYSTEM":"UTC","ARG_OF_PERICENTER":"98.1044","LAUNCH_DATE":"2022-08-19","TLE_LINE1":"1 53531U 22101E   23102.47647325  .00000163  00000-0  28331-4 0  9990","MEAN_MOTION_DDOT":"0.0000000000000","ECCENTRICITY":"0.00013200","REV_AT_EPOCH":"3580","EPOCH":"2023-04-12T11:26:07.288800","DECAY_DATE":null,"NORAD_CAT_ID":"53531","OBJECT_NAME":"STARLINK-4487","OBJECT_ID":"2022-101E","CLASSIFICATION_TYPE":"U","RCS_SIZE":"LARGE","MEAN_MOTION":"15.08838847","FILE":"3886349","PERIAPSIS":"538.836","EPHEMERIS_TYPE":"0","COUNTRY_CODE":"US","GP_ID":"229982792","PERIOD":"95.438","REF_FRAME":"TEME","RA_OF_ASC_NODE":"162.5813","CENTER_NAME":"EARTH","SEMIMAJOR_AXIS":"6917.884","SITE":"AFETR"},{"ARG_OF_PERICENTER":"101.1956","LAUNCH_DATE":"2022-08-19","TLE_LINE1":"1 53532U 22101F   23102.44335384 -.00000354  00000-0 -41329-5 0  9994","APOAPSIS":"540.690","MEAN_MOTION_DOT":"-0.00000354","TIME_SYSTEM":"UTC","REV_AT_EPOCH":"3580","EPOCH":"2023-04-12T10:38:25.771776","DECAY_DATE":null,"MEAN_MOTION_DDOT":"0.0000000000000","ECCENTRICITY":"0.00013620","BSTAR":"-0.00000413290000","TLE_LINE2":"2 53532  53.2145 162.7283 0001362 101.1956 258.9189 15.08839115 35803","ELEMENT_SET_NO":"999","MEAN_ELEMENT_THEORY":"SGP4","OBJECT_TYPE":"PAYLOAD","INCLINATION":"53.2145","MEAN_ANOMALY":"258.9189","EPHEMERIS_TYPE":"0","COUNTRY_CODE":"US","PERIAPSIS":"538.806","FILE":"3886349","RA_OF_ASC_NODE":"162.7283","PERIOD":"95.438","REF_FRAME":"TEME","CENTER_NAME":"EARTH","SEMIMAJOR_AXIS":"6917.883","SITE":"AFETR","GP_ID":"229983040","OBJECT_NAME":"STARLINK-4483","OBJECT_ID":"2022-101F","NORAD_CAT_ID":"53532","MEAN_MOTION":"15.08839115","RCS_SIZE":"LARGE","CLASSIFICATION_TYPE":"U"},{"MEAN_ANOMALY":"226.2062","INCLINATION":"53.2164","ELEMENT_SET_NO":"999","OBJECT_TYPE":"PAYLOAD","MEAN_ELEMENT_THEORY":"SGP4","TLE_LINE2":"2 53533  53.2164 161.8473 0001216 133.9031 226.2062 15.08876904 35839","BSTAR":"-0.00057697000000","MEAN_MOTION_DDOT":"0.0000000000000","ECCENTRICITY":"0.00012160","EPOCH":"2023-04-12T15:20:38.768640","REV_AT_EPOCH":"3583","DECAY_DATE":null,"APOAPSIS":"540.474","MEAN_MOTION_DOT":"-0.00009468","TIME_SYSTEM":"UTC","LAUNCH_DATE":"2022-08-19","ARG_OF_PERICENTER":"133.9031","TLE_LINE1":"1 53533U 22101G   23102.63933760 -.00009468  00000-0 -57697-3 0  9996","CLASSIFICATION_TYPE":"U","RCS_SIZE":"LARGE","MEAN_MOTION":"15.08876904","NORAD_CAT_ID":"53533","OBJECT_NAME":"STARLINK-4493","OBJECT_ID":"2022-101G","GP_ID":"229987239","CENTER_NAME":"EARTH","PERIOD":"95.435","RA_OF_ASC_NODE":"161.8473","REF_FRAME":"TEME","SITE":"AFETR","SEMIMAJOR_AXIS":"6917.768","PERIAPSIS":"538.791","FILE":"3886435","EPHEMERIS_TYPE":"0","COUNTRY_CODE":"US"},{"GP_ID":"229982043","PERIOD":"95.438","RA_OF_ASC_NODE":"162.7954","REF_FRAME":"TEME","CENTER_NAME":"EARTH","SEMIMAJOR_AXIS":"6917.886","SITE":"AFETR","FILE":"3886349","PERIAPSIS":"538.600","EPHEMERIS_TYPE":"0","COUNTRY_CODE":"US","CLASSIFICATION_TYPE":"U","RCS_SIZE":"LARGE","MEAN_MOTION":"15.08838012","NORAD_CAT_ID":"53534","OBJECT_NAME":"STARLINK-4488","OBJECT_ID":"2022-101H","MEAN_MOTION_DDOT":"0.0000000000000","ECCENTRICITY":"0.00016650","REV_AT_EPOCH":"3580","EPOCH":"2023-04-12T10:17:14.245440","DECAY_DATE":null,"APOAPSIS":"540.903","MEAN_MOTION_DOT":"-0.00000142","TIME_SYSTEM":"UTC","ARG_OF_PERICENTER":"90.2016","LAUNCH_DATE":"2022-08-19","TLE_LINE1":"1 53534U 22101H   23102.42863710 -.00000142  00000-0  91787-5 0  9990","MEAN_ANOMALY":"269.9167","INCLINATION":"53.2148","ELEMENT_SET_NO":"999","MEAN_ELEMENT_THEORY":"SGP4","OBJECT_TYPE":"PAYLOAD","BSTAR":"0.00000917870000","TLE_LINE2":"2 53534  53.2148 162.7954 0001665  90.2016 269.9167 15.08838012 35807"},{"EPOCH":"2023-04-12T15:13:59.056320","REV_AT_EPOCH":"3583","DECAY_DATE":null,"ECCENTRICITY":"0.00011770","MEAN_MOTION_DDOT":"0.0000000000000","LAUNCH_DATE":"2022-08-19","ARG_OF_PERICENTER":"77.6996","TLE_LINE1":"1 53535U 22101J   23102.63471130  .00002429  00000-0  17059-3 0  9992","MEAN_MOTION_DOT":"0.00002429","APOAPSIS":"540.539","TIME_SYSTEM":"UTC","INCLINATION":"53.2141","MEAN_ANOMALY":"282.4128","TLE_LINE2":"2 53535  53.2141 161.8709 0001177  77.6996 282.4128 15.08846887 35832","BSTAR":"0.00017059000000","ELEMENT_SET_NO":"999","OBJECT_TYPE":"PAYLOAD","MEAN_ELEMENT_THEORY":"SGP4","CENTER_NAME":"EARTH","REF_FRAME":"TEME","PERIOD":"95.437","RA_OF_ASC_NODE":"161.8709","SITE":"AFETR","SEMIMAJOR_AXIS":"6917.859","GP_ID":"229987736","EPHEMERIS_TYPE":"0","COUNTRY_CODE":"US","FILE":"3886435","PERIAPSIS":"538.910","MEAN_MOTION":"15.08846887","RCS_SIZE":"LARGE","CLASSIFICATION_TYPE":"U","OBJECT_NAME":"STARLINK-4138","OBJECT_ID":"2022-101J","NORAD_CAT_ID":"53535"},{"MEAN_ANOMALY":"272.3164","INCLINATION":"53.2163","ELEMENT_SET_NO":"999","MEAN_ELEMENT_THEORY":"SGP4","OBJECT_TYPE":"PAYLOAD","BSTAR":"-0.00001592700000","TLE_LINE2":"2 53536  53.2163 152.2694 0001224  87.7968 272.3164 15.08838015 35953","MEAN_MOTION_DDOT":"0.0000000000000","ECCENTRICITY":"0.00012240","REV_AT_EPOCH":"3595","EPOCH":"2023-04-12T13:18:44.447904","DECAY_DATE":null,"MEAN_MOTION_DOT":"-0.00000541","APOAPSIS":"540.598","TIME_SYSTEM":"UTC","ARG_OF_PERICENTER":"87.7968","LAUNCH_DATE":"2022-08-19","TLE_LINE1":"1 53536U 22101K   23102.55468111 -.00000541  00000-0 -15927-4 0  9997","RCS_SIZE":"LARGE","CLASSIFICATION_TYPE":"U","MEAN_MOTION":"15.08838015","NORAD_CAT_ID":"53536","OBJECT_NAME":"STARLINK-4053","OBJECT_ID":"2022-101K","GP_ID":"229983541","PERIOD":"95.438","REF_FRAME":"TEME","RA_OF_ASC_NODE":"152.2694","CENTER_NAME":"EARTH","SEMIMAJOR_AXIS":"6917.886","SITE":"AFETR","PERIAPSIS":"538.905","FILE":"3886349","EPHEMERIS_TYPE":"0","COUNTRY_CODE":"US"},{"TIME_SYSTEM":"UTC","APOAPSIS":"540.790","MEAN_MOTION_DOT":"-0.00000021","TLE_LINE1":"1 53537U 22101L   23102.57215397 -.00000021  00000-0  16765-4 0  9999","ARG_OF_PERICENTER":"108.0765","LAUNCH_DATE":"2022-08-19","ECCENTRICITY":"0.00015060","MEAN_MOTION_DDOT":"0.0000000000000","DECAY_DATE":null,"REV_AT_EPOCH":"3582","EPOCH":"2023-04-12T13:43:54.103008","MEAN_ELEMENT_THEORY":"SGP4","OBJECT_TYPE":"PAYLOAD","ELEMENT_SET_NO":"999","BSTAR":"0.00001676500000","TLE_LINE2":"2 53537  53.2151 162.1512 0001506 108.0765 252.0391 15.08839151 35820","MEAN_ANOMALY":"252.0391","INCLINATION":"53.2151","PERIAPSIS":"538.706","FILE":"3886349","COUNTRY_CODE":"US","EPHEMERIS_TYPE":"0","GP_ID":"229983779","SEMIMAJOR_AXIS":"6917.883","SITE":"AFETR","REF_FRAME":"TEME","PERIOD":"95.438","RA_OF_ASC_NODE":"162.1512","CENTER_NAME":"EARTH","NORAD_CAT_ID":"53537","OBJECT_ID":"2022-101L","OBJECT_NAME":"STARLINK-4120","CLASSIFICATION_TYPE":"U","RCS_SIZE":"LARGE","MEAN_MOTION":"15.08839151"},{"MEAN_MOTION_DDOT":"0.0000000000000","ECCENTRICITY":"0.00014460","EPOCH":"2023-04-12T09:57:22.101696","REV_AT_EPOCH":"3662","DECAY_DATE":null,"APOAPSIS":"540.764","MEAN_MOTION_DOT":"-0.00001228","TIME_SYSTEM":"UTC","LAUNCH_DATE":"2022-08-19","ARG_OF_PERICENTER":"74.6443","TLE_LINE1":"1 53538U 22101M   23102.41483914 -.00001228  00000-0 -59077-4 0  9999","MEAN_ANOMALY":"285.4709","INCLINATION":"53.2169","ELEMENT_SET_NO":"999","OBJECT_TYPE":"PAYLOAD","MEAN_ELEMENT_THEORY":"SGP4","TLE_LINE2":"2 53538  53.2169 152.8605 0001446  74.6443 285.4709 15.08834148 36626","BSTAR":"-0.00005907700000","GP_ID":"229982544","CENTER_NAME":"EARTH","PERIOD":"95.438","RA_OF_ASC_NODE":"152.8605","REF_FRAME":"TEME","SITE":"AFETR","SEMIMAJOR_AXIS":"6917.898","FILE":"3886349","PERIAPSIS":"538.763","EPHEMERIS_TYPE":"0","COUNTRY_CODE":"US","CLASSIFICATION_TYPE":"U","RCS_SIZE":"LARGE","MEAN_MOTION":"15.08834148","NORAD_CAT_ID":"53538","OBJECT_NAME":"STARLINK-4118","OBJECT_ID":"2022-101M"},{"ELEMENT_SET_NO":"999","OBJECT_TYPE":"PAYLOAD","MEAN_ELEMENT_THEORY":"SGP4","TLE_LINE2":"2 53539  53.2161 161.8863 0001370  83.9388 276.1760 15.08851905 35838","BSTAR":"0.00005606300000","MEAN_ANOMALY":"276.1760","INCLINATION":"53.2161","MEAN_MOTION_DOT":"0.00000605","APOAPSIS":"540.657","TIME_SYSTEM":"UTC","LAUNCH_DATE":"2022-08-19","ARG_OF_PERICENTER":"83.9388","TLE_LINE1":"1 53539U 22101N   23102.63102807  .00000605  00000-0  56063-4 0  9991","MEAN_MOTION_DDOT":"0.0000000000000","ECCENTRICITY":"0.00013700","EPOCH":"2023-04-12T15:08:40.825248","REV_AT_EPOCH":"3583","DECAY_DATE":null,"NORAD_CAT_ID":"53539","OBJECT_NAME":"STARLINK-4123","OBJECT_ID":"2022-101N","CLASSIFICATION_TYPE":"U","RCS_SIZE":"LARGE","MEAN_MOTION":"15.08851905","FILE":"3886420","PERIAPSIS":"538.761","EPHEMERIS_TYPE":"0","COUNTRY_CODE":"US","GP_ID":"229987743","CENTER_NAME":"EARTH","RA_OF_ASC_NODE":"161.8863","PERIOD":"95.437","REF_FRAME":"TEME","SITE":"AFETR","SEMIMAJOR_AXIS":"6917.844"},{"GP_ID":"229983041","SEMIMAJOR_AXIS":"6917.904","SITE":"AFETR","REF_FRAME":"TEME","PERIOD":"95.438","RA_OF_ASC_NODE":"152.8785","CENTER_NAME":"EARTH","FILE":"3886349","PERIAPSIS":"538.753","COUNTRY_CODE":"US","EPHEMERIS_TYPE":"0","CLASSIFICATION_TYPE":"U","RCS_SIZE":"LARGE","MEAN_MOTION":"15.08832287","NORAD_CAT_ID":"53540","OBJECT_ID":"2022-101P","OBJECT_NAME":"STARLINK-4486","ECCENTRICITY":"0.00014680","MEAN_MOTION_DDOT":"0.0000000000000","DECAY_DATE":null,"REV_AT_EPOCH":"3662","EPOCH":"2023-04-12T09:52:04.324224","TIME_SYSTEM":"UTC","MEAN_MOTION_DOT":"-0.00000409","APOAPSIS":"540.785","TLE_LINE1":"1 53540U 22101P   23102.41116116 -.00000409  00000-0 -75780-5 0  9999","ARG_OF_PERICENTER":"63.7868","LAUNCH_DATE":"2022-08-19","MEAN_ANOMALY":"296.3274","INCLINATION":"53.2180","MEAN_ELEMENT_THEORY":"SGP4","OBJECT_TYPE":"PAYLOAD","ELEMENT_SET_NO":"999","BSTAR":"-0.00000757800000","TLE_LINE2":"2 53540  53.2180 152.8785 0001468  63.7868 296.3274 15.08832287 36625"}];
